{
    "links": {
        "self": "http://www.neowsapp.com/rest/v1/neo/3511827?api_key=iIulBulltgU6a56xZRHN4H3l9WmuAYTsLGpBGhQ2"
    },
    "id": "3511827",
    "neo_reference_id": "3511827",
    "name": "(2010 EB43)",
    "designation": "2010 EB43",
    "nasa_jpl_url": "http://ssd.jpl.nasa.gov/sbdb.cgi?sstr=3511827",
    "absolute_magnitude_h": 22.2,
    "estimated_diameter": {
        "kilometers": {
            "estimated_diameter_min": 0.096506147,
            "estimated_diameter_max": 0.2157943048
        },
        "meters": {
            "estimated_diameter_min": 96.5061469579,
            "estimated_diameter_max": 215.7943048444
        },
        "miles": {
            "estimated_diameter_min": 0.059966121,
            "estimated_diameter_max": 0.134088323
        },
        "feet": {
            "estimated_diameter_min": 316.6212271853,
            "estimated_diameter_max": 707.9865871058
        }
    },
    "is_potentially_hazardous_asteroid": false,
    "close_approach_data": [
        {
            "close_approach_date": "1988-03-03",
            "close_approach_date_full": "1988-Mar-03 17:47",
            "epoch_date_close_approach": 573414420000,
            "relative_velocity": {
                "kilometers_per_second": "13.6739258577",
                "kilometers_per_hour": "49226.1330875501",
                "miles_per_hour": "30587.2047509835"
            },
            "miss_distance": {
                "astronomical": "0.1005418473",
                "lunar": "39.1107785997",
                "kilometers": "15040846.201945251",
                "miles": "9345948.4525004238"
            },
            "orbiting_body": "Earth"
        },
        {
            "close_approach_date": "1999-03-04",
            "close_approach_date_full": "1999-Mar-04 07:14",
            "epoch_date_close_approach": 920531640000,
            "relative_velocity": {
                "kilometers_per_second": "13.6061381388",
                "kilometers_per_hour": "48982.0972997858",
                "miles_per_hour": "30435.5704027475"
            },
            "miss_distance": {
                "astronomical": "0.1031381318",
                "lunar": "40.1207332702",
                "kilometers": "15429244.833059266",
                "miles": "9587288.1708032308"
            },
            "orbiting_body": "Earth"
        },
        {
            "close_approach_date": "2010-03-03",
            "close_approach_date_full": "2010-Mar-03 18:05",
            "epoch_date_close_approach": 1267639500000,
            "relative_velocity": {
                "kilometers_per_second": "13.520882019",
                "kilometers_per_hour": "48675.1752684893",
                "miles_per_hour": "30244.8609883566"
            },
            "miss_distance": {
                "astronomical": "0.1108074939",
                "lunar": "43.1041151271",
                "kilometers": "16576565.067477993",
                "miles": "10300199.9063145834"
            },
            "orbiting_body": "Earth"
        },
        {
            "close_approach_date": "2021-03-03",
            "close_approach_date_full": "2021-Mar-03 01:26",
            "epoch_date_close_approach": 1614734760000,
            "relative_velocity": {
                "kilometers_per_second": "13.4339097449",
                "kilometers_per_hour": "48362.0750817196",
                "miles_per_hour": "30050.3127084162"
            },
            "miss_distance": {
                "astronomical": "0.1302130367",
                "lunar": "50.6528712763",
                "kilometers": "19479592.936551829",
                "miles": "12104057.7781560802"
            },
            "orbiting_body": "Earth"
        }
    ],
    "orbital_data": {
        "orbit_id": "11",
        "orbit_determination_date": "2017-04-06 08:58:12",
        "first_observation_date": "2010-03-12",
        "last_observation_date": "2010-04-10",
        "data_arc_in_days": 29,
        "observations_used": 52,
        "orbit_uncertainty": "7",
        "minimum_orbit_intersection": ".0994888",
        "jupiter_tisserand_invariant": "4.749",
        "epoch_osculation": "2459000.5",
        "eccentricity": ".2184023445001752",
        "semi_major_axis": "1.351167728349719",
        "inclination": "25.42576625364728",
        "ascending_node_longitude": "166.043279093905",
        "orbital_period": "573.6702425098126",
        "perihelion_distance": "1.056069528665165",
        "perihelion_argument": "323.5112099175186",
        "aphelion_distance": "1.646265928034274",
        "perihelion_time": "2459238.564884637383",
        "mean_anomaly": "210.6051872335141",
        "mean_motion": ".6275382150292416",
        "equinox": "J2000",
        "orbit_class": {
            "orbit_class_type": "AMO",
            "orbit_class_description": "Near-Earth asteroid orbits similar to that of 1221 Amor",
            "orbit_class_range": "1.017 AU < q (perihelion) < 1.3 AU"
        }
    },
    "is_sentry_object": false
}